OBJECT_NAME,OBJECT_ID,EPOCH,MEAN_MOTION,ECCENTRICITY,INCLINATION,RA_OF_ASC_NODE,ARG_OF_PERICENTER,MEAN_ANOMALY,EPHEMERIS_TYPE,CLASSIFICATION_TYPE,NORAD_CAT_ID,ELEMENT_SET_NO,REV_AT_EPOCH,BSTAR,MEAN_MOTION_DOT,MEAN_MOTION_DDOT
SAUDISAT 1C (SO-50),2002-058C,2026-07-01T23:45:58.868352,14.83077510,.00749074,64.5520,83.1849,259.7114,99.5540,0,U,27607,999,26665,.13277271E-3,.98E-5,0
SAUDISAT 2,2004-025F,2026-07-02T06:40:14.010816,14.56692512,.00235035,98.5511,183.6500,249.4990,110.3685,0,U,28371,999,16794,.76075703E-4,.291E-5,0
SAUDISAT 3,2007-012B,2026-07-02T06:53:28.979808,14.71434300,.00146858,98.1461,133.6981,174.2060,185.9319,0,U,31118,999,2996,.58223606E-4,.31E-5,0
PISAT,2016-059B,2026-07-02T06:22:25.248864,14.69010551,.00296303,97.8182,183.0706,154.6360,205.6309,0,U,41784,999,52195,.19777228E-3,.112E-4,0
FLYING LAPTOP,2017-042G,2026-07-02T07:35:32.075808,15.01242271,.00199654,97.4757,338.2726,73.5736,286.7681,0,U,42831,999,48872,.27973989E-3,.355E-4,0
SALSAT,2020-068K,2026-07-02T06:06:00.402912,15.30013367,.00080377,97.8847,187.2381,243.7769,116.2645,0,U,46495,999,31766,.2998701E-3,.8637E-4,0
